{"type": "FeatureCollection", "features": [ {"type": "Feature", "properties": {"norad_id": 34962, "name": "COSMOS 2251 DEB", "group": "cosmos-2251-debris", "lat": -33.67886408519766, "lon": 6.752555888212708, "alt_km": 738.7879944341203, "timestamp": "2025-12-22T04:03:39.564022+00:00", "meta": {"OBJECT_NAME": "COSMOS 2251 DEB", "OBJECT_ID": "1993-036AER", "EPOCH": "2025-12-21T12:07:46.331904", "MEAN_MOTION": 14.46540599, "ECCENTRICITY": 0.00188893, "INCLINATION": 74.0285, "RA_OF_ASC_NODE": 176.9899, "ARG_OF_PERICENTER": 289.3236, "MEAN_ANOMALY": 70.588, "EPHEMERIS_TYPE": 0, "CLASSIFICATION_TYPE": "U", "NORAD_CAT_ID": 34962, "ELEMENT_SET_NO": 999, "REV_AT_EPOCH": 87705, "BSTAR": 0.00032383512, "MEAN_MOTION_DOT": 1.142e-05, "MEAN_MOTION_DDOT": 0}, "tle": {"line1": "1 34962U 93036AER 25355.50539736  .00001142  00000+0  32384-3 0  9993", "line2": "2 34962  74.0285 176.9899 0018889 289.3236  70.5880 14.46540599877050"}}, "geometry": {"type": "Point", "coordinates": [6.752555888212708, -33.67886408519766]}}, {"type": "Feature", "properties": {"norad_id": 34963, "name": "COSMOS 2251 DEB", "group": "cosmos-2251-debris", "lat": -74.15525745806924, "lon": -66.43813974371639, "alt_km": 709.4206106758602, "timestamp": "2025-12-22T04:03:39.564032+00:00", "meta": {"OBJECT_NAME": "COSMOS 2251 DEB", "OBJECT_ID": "1993-036AES", "EPOCH": "2025-12-21T08:37:22.838304", "MEAN_MOTION": 14.51157305, "ECCENTRICITY": 0.00422053, "INCLINATION": 74.1709, "RA_OF_ASC_NODE": 26.6609, "ARG_OF_PERICENTER": 221.4683, "MEAN_ANOMALY": 138.3275, "EPHEMERIS_TYPE": 0, "CLASSIFICATION_TYPE": "U", "NORAD_CAT_ID": 34963, "ELEMENT_SET_NO": 999, "REV_AT_EPOCH": 86926, "BSTAR": 0.00091903154, "MEAN_MOTION_DOT": 3.663e-05, "MEAN_MOTION_DDOT": 0}, "tle": {"line1": "1 34963U 93036AES 25355.35929211  .00003663  00000+0  91903-3 0  9990", "line2": "2 34963  74.1709  26.6609 0042205 221.4683 138.3275 14.51157305869265"}}, "geometry": {"type": "Point", "coordinates": [-66.43813974371639, -74.15525745806924]}}, {"type": "Feature", "properties": {"norad_id": 34964, "name": "COSMOS 2251 DEB", "group": "cosmos-2251-debris", "lat": 14.741908326750483, "lon": -24.232118035669412, "alt_km": 1044.9893854494167, "timestamp": "2025-12-22T04:03:39.564042+00:00", "meta": {"OBJECT_NAME": "COSMOS 2251 DEB", "OBJECT_ID": "1993-036AET", "EPOCH": "2025-12-18T07:25:04.519776", "MEAN_MOTION": 14.00628567, "ECCENTRICITY": 0.02123167, "INCLINATION": 73.9712, "RA_OF_ASC_NODE": 338.1457, "ARG_OF_PERICENTER": 195.4091, "MEAN_ANOMALY": 164.0515, "EPHEMERIS_TYPE": 0, "CLASSIFICATION_TYPE": "U", "NORAD_CAT_ID": 34964, "ELEMENT_SET_NO": 999, "REV_AT_EPOCH": 84556, "BSTAR": 0.00089791859, "MEAN_MOTION_DOT": 1.6e-05, "MEAN_MOTION_DDOT": 0}, "tle": {"line1": "1 34964U 93036AET 25352.30908009  .00001600  00000+0  89792-3 0  9997", "line2": "2 34964  73.9712 338.1457 0212316 195.4091 164.0515 14.00628567845561"}}, "geometry": {"type": "Point", "coordinates": [-24.232118035669412, 14.741908326750483]}}, {"type": "Feature", "properties": {"norad_id": 34965, "name": "COSMOS 2251 DEB", "group": "cosmos-2251-debris", "lat": -72.66393659748746, "lon": 44.45857600308742, "alt_km": 722.2047113193676, "timestamp": "2025-12-22T04:03:39.564051+00:00", "meta": {"OBJECT_NAME": "COSMOS 2251 DEB", "OBJECT_ID": "1993-036AEU", "EPOCH": "2025-12-21T00:16:11.053056", "MEAN_MOTION": 14.48726016, "ECCENTRICITY": 0.00265995, "INCLINATION": 74.0518, "RA_OF_ASC_NODE": 112.9826, "ARG_OF_PERICENTER": 239.5648, "MEAN_ANOMALY": 120.2883, "EPHEMERIS_TYPE": 0, "CLASSIFICATION_TYPE": "U", "NORAD_CAT_ID": 34965, "ELEMENT_SET_NO": 999, "REV_AT_EPOCH": 87233, "BSTAR": 0.00023957341, "MEAN_MOTION_DOT": 8.8e-06, "MEAN_MOTION_DDOT": 0}, "tle": {"line1": "1 34965U 93036AEU 25355.01123904  .00000880  00000+0  23957-3 0  9992", "line2": "2 34965  74.0518 112.9826 0026599 239.5648 120.2883 14.48726016872337"}}, "geometry": {"type": "Point", "coordinates": [44.45857600308742, -72.66393659748746]}}, {"type": "Feature", "properties": {"norad_id": 34967, "name": "COSMOS 2251 DEB", "group": "cosmos-2251-debris", "lat": 36.06981978508859, "lon": -111.65643869834935, "alt_km": 715.5217348253773, "timestamp": "2025-12-22T04:03:39.564061+00:00", "meta": {"OBJECT_NAME": "COSMOS 2251 DEB", "OBJECT_ID": "1993-036AEW", "EPOCH": "2025-12-13T00:27:20.673792", "MEAN_MOTION": 14.44269018, "ECCENTRICITY": 0.00380101, "INCLINATION": 73.9933, "RA_OF_ASC_NODE": 253.3374, "ARG_OF_PERICENTER": 39.5345, "MEAN_ANOMALY": 320.8573, "EPHEMERIS_TYPE": 0, "CLASSIFICATION_TYPE": "U", "NORAD_CAT_ID": 34967, "ELEMENT_SET_NO": 999, "REV_AT_EPOCH": 64961, "BSTAR": 0.0011451852, "MEAN_MOTION_DOT": 3.946e-05, "MEAN_MOTION_DDOT": 0}, "tle": {"line1": "1 34967U 93036AEW 25347.01898928  .00003946  00000+0  11452-2 0  9992", "line2": "2 34967  73.9933 253.3374 0038010  39.5345 320.8573 14.44269018649616"}}, "geometry": {"type": "Point", "coordinates": [-111.65643869834935, 36.06981978508859]}}, {"type": "Feature", "properties": {"norad_id": 34968, "name": "COSMOS 2251 DEB", "group": "cosmos-2251-debris", "lat": 44.21250763495647, "lon": -114.7366031236544, "alt_km": 659.3559993607114, "timestamp": "2025-12-22T04:03:39.564071+00:00", "meta": {"OBJECT_NAME": "COSMOS 2251 DEB", "OBJECT_ID": "1993-036AEX", "EPOCH": "2025-12-20T22:14:19.745088", "MEAN_MOTION": 14.59418931, "ECCENTRICITY": 0.0086978, "INCLINATION": 74.0378, "RA_OF_ASC_NODE": 231.4631, "ARG_OF_PERICENTER": 349.7282, "MEAN_ANOMALY": 10.2102, "EPHEMERIS_TYPE": 0, "CLASSIFICATION_TYPE": "U", "NORAD_CAT_ID": 34968, "ELEMENT_SET_NO": 999, "REV_AT_EPOCH": 88597, "BSTAR": 9.8447e-05, "MEAN_MOTION_DOT": 4.59e-06, "MEAN_MOTION_DDOT": 0}, "tle": {"line1": "1 34968U 93036AEX 25354.92661742  .00000459  00000+0  98447-4 0  9990", "line2": "2 34968  74.0378 231.4631 0086978 349.7282  10.2102 14.59418931885972"}}, "geometry": {"type": "Point", "coordinates": [-114.7366031236544, 44.21250763495647]}}, {"type": "Feature", "properties": {"norad_id": 34969, "name": "COSMOS 2251 DEB", "group": "cosmos-2251-debris", "lat": -59.94885335121689, "lon": -23.79057426281836, "alt_km": 839.8712268585205, "timestamp": "2025-12-22T04:03:39.564081+00:00", "meta": {"OBJECT_NAME": "COSMOS 2251 DEB", "OBJECT_ID": "1993-036AEY", "EPOCH": "2025-12-21T18:18:22.826880", "MEAN_MOTION": 14.32268431, "ECCENTRICITY": 0.0073195, "INCLINATION": 74.0139, "RA_OF_ASC_NODE": 6.6546, "ARG_OF_PERICENTER": 137.5862, "MEAN_ANOMALY": 223.0979, "EPHEMERIS_TYPE": 0, "CLASSIFICATION_TYPE": "U", "NORAD_CAT_ID": 34969, "ELEMENT_SET_NO": 999, "REV_AT_EPOCH": 65266, "BSTAR": 0.00019814, "MEAN_MOTION_DOT": 5.25e-06, "MEAN_MOTION_DDOT": 0}, "tle": {"line1": "1 34969U 93036AEY 25355.76276420  .00000525  00000+0  19814-3 0  9993", "line2": "2 34969  74.0139   6.6546 0073195 137.5862 223.0979 14.32268431652662"}}, "geometry": {"type": "Point", "coordinates": [-23.79057426281836, -59.94885335121689]}}, {"type": "Feature", "properties": {"norad_id": 34971, "name": "COSMOS 2251 DEB", "group": "cosmos-2251-debris", "lat": -19.625496609417688, "lon": -98.80055218354579, "alt_km": 754.8966327585258, "timestamp": "2025-12-22T04:03:39.564117+00:00", "meta": {"OBJECT_NAME": "COSMOS 2251 DEB", "OBJECT_ID": "1993-036AFA", "EPOCH": "2025-12-18T11:38:13.277760", "MEAN_MOTION": 14.55642375, "ECCENTRICITY": 0.00693978, "INCLINATION": 73.9787, "RA_OF_ASC_NODE": 274.0839, "ARG_OF_PERICENTER": 138.3039, "MEAN_ANOMALY": 342.538, "EPHEMERIS_TYPE": 0, "CLASSIFICATION_TYPE": "U", "NORAD_CAT_ID": 34971, "ELEMENT_SET_NO": 999, "REV_AT_EPOCH": 66256, "BSTAR": 0.00012982435, "MEAN_MOTION_DOT": 5.55e-06, "MEAN_MOTION_DDOT": 0}, "tle": {"line1": "1 34971U 93036AFA 25352.48487590  .00000555  00000+0  12982-3 0  9996", "line2": "2 34971  73.9787 274.0839 0069397 138.3039 342.5380 14.55642375662563"}}, "geometry": {"type": "Point", "coordinates": [-98.80055218354579, -19.625496609417688]}}, {"type": "Feature", "properties": {"norad_id": 34972, "name": "COSMOS 2251 DEB", "group": "cosmos-2251-debris", "lat": 72.65524279460946, "lon": 144.59225692762678, "alt_km": 644.8495154867041, "timestamp": "2025-12-22T04:03:39.564127+00:00", "meta": {"OBJECT_NAME": "COSMOS 2251 DEB", "OBJECT_ID": "1993-036AFB", "EPOCH": "2025-12-20T04:37:09.782112", "MEAN_MOTION": 14.72993078, "ECCENTRICITY": 0.0033079, "INCLINATION": 73.988, "RA_OF_ASC_NODE": 35.2981, "ARG_OF_PERICENTER": 193.0312, "MEAN_ANOMALY": 226.1658, "EPHEMERIS_TYPE": 0, "CLASSIFICATION_TYPE": "U", "NORAD_CAT_ID": 34972, "ELEMENT_SET_NO": 999, "REV_AT_EPOCH": 87760, "BSTAR": 0.00080503, "MEAN_MOTION_DOT": 5.185e-05, "MEAN_MOTION_DDOT": 0}, "tle": {"line1": "1 34972U 93036AFB 25354.19247433  .00005185  00000+0  80503-3 0  9995", "line2": "2 34972  73.9880  35.2981 0033079 193.0312 226.1658 14.72993078877609"}}, "geometry": {"type": "Point", "coordinates": [144.59225692762678, 72.65524279460946]}}, {"type": "Feature", "properties": {"norad_id": 34976, "name": "COSMOS 2251 DEB", "group": "cosmos-2251-debris", "lat": -41.677399322375464, "lon": -86.94641563641834, "alt_km": 613.560473683986, "timestamp": "2025-12-22T04:03:39.564138+00:00", "meta": {"OBJECT_NAME": "COSMOS 2251 DEB", "OBJECT_ID": "1993-036AFF", "EPOCH": "2025-12-21T06:10:26.762880", "MEAN_MOTION": 14.7673606, "ECCENTRICITY": 0.0047873, "INCLINATION": 74.0584, "RA_OF_ASC_NODE": 289.5795, "ARG_OF_PERICENTER": 334.4834, "MEAN_ANOMALY": 175.8331, "EPHEMERIS_TYPE": 0, "CLASSIFICATION_TYPE": "U", "NORAD_CAT_ID": 34976, "ELEMENT_SET_NO": 999, "REV_AT_EPOCH": 88399, "BSTAR": 0.0011964, "MEAN_MOTION_DOT": 8.517e-05, "MEAN_MOTION_DDOT": 0}, "tle": {"line1": "1 34976U 93036AFF 25355.25725420  .00008517  00000+0  11964-2 0  9990", "line2": "2 34976  74.0584 289.5795 0047873 334.4834 175.8331 14.76736060883997"}}, "geometry": {"type": "Point", "coordinates": [-86.94641563641834, -41.677399322375464]}}]}